IRIDIUM 921 [-]         
1 24873U 97034E   23236.65022006  .00010796  00000+0  43975-3 0  9997
2 24873  86.3836  73.3971 0003920 321.2374  38.8590 15.24347503429660
IRIDIUM 26 [-]          
1 24903U 97043A   23236.68313748  .00000517  00000+0  17126-3 0  9999
2 24903  86.3970  28.5386 0002309  95.3310 264.8150 14.35969741361634
IRIDIUM 22 [-]          
1 24907U 97043E   23236.72009734  .00000511  00000+0  17296-3 0  9997
2 24907  86.3968  31.5242 0002093  91.9912 268.1523 14.34881480361745
DUMMY MASS 1 [-]        
1 24925U 97048A   23236.55611606  .00000437  00000+0  47057-4 0  9996
2 24925  86.3300  81.4580 0006253 354.0332   6.0816 14.85796171406703
DUMMY MASS 2 [-]        
1 24926U 97048B   23236.07320858  .00000423  00000+0  45761-4 0  9995
2 24926  86.3300  83.1736 0007532   4.2214 355.9073 14.85558159406422
IRIDIUM 29 [-]          
1 24944U 97051A   23236.81743888  .00000455  00000+0  15181-3 0  9990
2 24944  86.3915  61.5023 0001888  91.8929 268.2483 14.35345329358443
IRIDIUM 33 [-]          
1 24946U 97051C   23236.64590808  .00000316  00000+0  10587-3 0  9996
2 24946  86.3831  60.8564 0010018  82.3864 277.8469 14.34090987357762
IRIDIUM 28 [-]          
1 24948U 97051E   23236.45890285  .00000442  00000+0  14470-3 0  9994
2 24948  86.3922  59.5477 0002514  90.6933 269.4552 14.36262801358684
